{
  "type": "FeatureCollection",
  "features": [
    {
      "type": "Feature",
      "properties": {
        "norad_id": 66334,
        "name": "STARLINK-35407",
        "group": "last-30-days",
        "lat": 4.40375670585329,
        "lon": -141.09814982172304,
        "alt_km": 414.11672616775377,
        "timestamp": "2025-12-02T15:49:05.947191+00:00",
        "meta_object_name": "STARLINK-35407",
        "meta_object_id": "2025-253R",
        "meta_epoch": "2025-12-02T05:47:54.705696",
        "meta_mean_motion": 15.50606846,
        "meta_eccentricity": 0.00018201,
        "meta_inclination": 43.0002,
        "meta_ra_of_asc_node": 46.0853,
        "meta_arg_of_pericenter": 277.7851,
        "meta_mean_anomaly": 82.2803,
        "meta_ephemeris_type": 0,
        "meta_classification_type": "U",
        "meta_norad_cat_id": 66334,
        "meta_element_set_no": 999,
        "meta_rev_at_epoch": 530,
        "meta_bstar": 0.0026112392,
        "meta_mean_motion_dot": 0.00156096,
        "meta_mean_motion_ddot": 0,
        "tle_line1": "1 66334U 25253R   25336.24160539  .00156096  00000+0  26112-2 0  9998",
        "tle_line2": "2 66334  43.0002  46.0853 0001820 277.7851  82.2803 15.50606846  5309"
      },
      "geometry": {
        "type": "Point",
        "coordinates": [
          -141.09814982172304,
          4.40375670585329
        ]
      }
    },
    {
      "type": "Feature",
      "properties": {
        "norad_id": 66335,
        "name": "STARLINK-35417",
        "group": "last-30-days",
        "lat": 38.69668895560178,
        "lon": 103.17395206409901,
        "alt_km": 438.8074144547236,
        "timestamp": "2025-12-02T15:49:05.947201+00:00",
        "meta_object_name": "STARLINK-35417",
        "meta_object_id": "2025-253S",
        "meta_epoch": "2025-12-02T06:00:02.999808",
        "meta_mean_motion": 15.40649977,
        "meta_eccentricity": 0.00013216,
        "meta_inclination": 43.0009,
        "meta_ra_of_asc_node": 46.2588,
        "meta_arg_of_pericenter": 251.0876,
        "meta_mean_anomaly": 63.9197,
        "meta_ephemeris_type": 0,
        "meta_classification_type": "U",
        "meta_norad_cat_id": 66335,
        "meta_element_set_no": 999,
        "meta_rev_at_epoch": 524,
        "meta_bstar": 0.0011339018,
        "meta_mean_motion_dot": 0.00047277,
        "meta_mean_motion_ddot": 0,
        "tle_line1": "1 66335U 25253S   25336.25003472  .00047277  00000+0  11339-2 0  9997",
        "tle_line2": "2 66335  43.0009  46.2588 0001321 251.0876  63.9197 15.40649977  5248"
      },
      "geometry": {
        "type": "Point",
        "coordinates": [
          103.17395206409901,
          38.69668895560178
        ]
      }
    },
    {
      "type": "Feature",
      "properties": {
        "norad_id": 66336,
        "name": "STARLINK-35404",
        "group": "last-30-days",
        "lat": -3.0285145988114937,
        "lon": -133.13104054043538,
        "alt_km": 414.3122755297363,
        "timestamp": "2025-12-02T15:49:05.947211+00:00",
        "meta_object_name": "STARLINK-35404",
        "meta_object_id": "2025-253T",
        "meta_epoch": "2025-12-02T05:45:07.240032",
        "meta_mean_motion": 15.50663874,
        "meta_eccentricity": 0.00015748,
        "meta_inclination": 42.9999,
        "meta_ra_of_asc_node": 46.0686,
        "meta_arg_of_pericenter": 253.9948,
        "meta_mean_anomaly": 106.0739,
        "meta_ephemeris_type": 0,
        "meta_classification_type": "U",
        "meta_norad_cat_id": 66336,
        "meta_element_set_no": 999,
        "meta_rev_at_epoch": 530,
        "meta_bstar": 0.0021833927,
        "meta_mean_motion_dot": 0.00130295,
        "meta_mean_motion_ddot": 0,
        "tle_line1": "1 66336U 25253T   25336.23966713  .00130295  00000+0  21834-2 0  9996",
        "tle_line2": "2 66336  42.9999  46.0686 0001574 253.9948 106.0739 15.50663874  5304"
      },
      "geometry": {
        "type": "Point",
        "coordinates": [
          -133.13104054043538,
          -3.0285145988114937
        ]
      }
    },
    {
      "type": "Feature",
      "properties": {
        "norad_id": 66337,
        "name": "STARLINK-34783",
        "group": "last-30-days",
        "lat": 42.965660076966955,
        "lon": 135.6950026728504,
        "alt_km": 438.1803662407219,
        "timestamp": "2025-12-02T15:49:05.947237+00:00",
        "meta_object_name": "STARLINK-34783",
        "meta_object_id": "2025-253U",
        "meta_epoch": "2025-12-02T06:00:02.999808",
        "meta_mean_motion": 15.40677197,
        "meta_eccentricity": 0.00014754,
        "meta_inclination": 43.0009,
        "meta_ra_of_asc_node": 46.1984,
        "meta_arg_of_pericenter": 264.0394,
        "meta_mean_anomaly": 75.7568,
        "meta_ephemeris_type": 0,
        "meta_classification_type": "U",
        "meta_norad_cat_id": 66337,
        "meta_element_set_no": 999,
        "meta_rev_at_epoch": 529,
        "meta_bstar": 0.0011027135,
        "meta_mean_motion_dot": 0.00046003,
        "meta_mean_motion_ddot": 0,
        "tle_line1": "1 66337U 25253U   25336.25003472  .00046003  00000+0  11027-2 0  9999",
        "tle_line2": "2 66337  43.0009  46.1984 0001475 264.0394  75.7568 15.40677197  5291"
      },
      "geometry": {
        "type": "Point",
        "coordinates": [
          135.6950026728504,
          42.965660076966955
        ]
      }
    },
    {
      "type": "Feature",
      "properties": {
        "norad_id": 66338,
        "name": "STARLINK-35477",
        "group": "last-30-days",
        "lat": 33.486930350761696,
        "lon": 89.16066876665838,
        "alt_km": 439.1439944473577,
        "timestamp": "2025-12-02T15:49:05.947249+00:00",
        "meta_object_name": "STARLINK-35477",
        "meta_object_id": "2025-253V",
        "meta_epoch": "2025-12-02T06:00:02.999808",
        "meta_mean_motion": 15.40655506,
        "meta_eccentricity": 6.25e-05,
        "meta_inclination": 43.0006,
        "meta_ra_of_asc_node": 46.2898,
        "meta_arg_of_pericenter": 229.6289,
        "meta_mean_anomaly": 72.9166,
        "meta_ephemeris_type": 0,
        "meta_classification_type": "U",
        "meta_norad_cat_id": 66338,
        "meta_element_set_no": 999,
        "meta_rev_at_epoch": 534,
        "meta_bstar": 0.0012089172,
        "meta_mean_motion_dot": 0.00050455,
        "meta_mean_motion_ddot": 0,
        "tle_line1": "1 66338U 25253V   25336.25003472  .00050455  00000+0  12089-2 0  9995",
        "tle_line2": "2 66338  43.0006  46.2898 0000625 229.6289  72.9166 15.40655506  5349"
      },
      "geometry": {
        "type": "Point",
        "coordinates": [
          89.16066876665838,
          33.486930350761696
        ]
      }
    },
    {
      "type": "Feature",
      "properties": {
        "norad_id": 66339,
        "name": "STARLINK-35443",
        "group": "last-30-days",
        "lat": -8.41145124890889,
        "lon": -127.27660335466712,
        "alt_km": 422.19819117509996,
        "timestamp": "2025-12-02T15:49:05.947260+00:00",
        "meta_object_name": "STARLINK-35443",
        "meta_object_id": "2025-253W",
        "meta_epoch": "2025-12-02T05:42:14.846976",
        "meta_mean_motion": 15.48798545,
        "meta_eccentricity": 0.00012668,
        "meta_inclination": 43.0002,
        "meta_ra_of_asc_node": 46.0511,
        "meta_arg_of_pericenter": 281.1993,
        "meta_mean_anomaly": 78.8724,
        "meta_ephemeris_type": 0,
        "meta_classification_type": "U",
        "meta_norad_cat_id": 66339,
        "meta_element_set_no": 999,
        "meta_rev_at_epoch": 530,
        "meta_bstar": -0.0082997541,
        "meta_mean_motion_dot": -0.00432994,
        "meta_mean_motion_ddot": 0,
        "tle_line1": "1 66339U 25253W   25336.23767184 -.00432994  00000+0 -82998-2 0  9991",
        "tle_line2": "2 66339  43.0002  46.0511 0001266 281.1993  78.8724 15.48798545  5303"
      },
      "geometry": {
        "type": "Point",
        "coordinates": [
          -127.27660335466712,
          -8.41145124890889
        ]
      }
    },
    {
      "type": "Feature",
      "properties": {
        "norad_id": 66340,
        "name": "STARLINK-35218",
        "group": "last-30-days",
        "lat": -4.320336207957757,
        "lon": -131.7403238653042,
        "alt_km": 414.5159214373989,
        "timestamp": "2025-12-02T15:49:05.947273+00:00",
        "meta_object_name": "STARLINK-35218",
        "meta_object_id": "2025-253X",
        "meta_epoch": "2025-12-02T05:44:37.704192",
        "meta_mean_motion": 15.50658934,
        "meta_eccentricity": 0.00017229,
        "meta_inclination": 43.0002,
        "meta_ra_of_asc_node": 46.0659,
        "meta_arg_of_pericenter": 259.1035,
        "meta_mean_anomaly": 100.9632,
        "meta_ephemeris_type": 0,
        "meta_classification_type": "U",
        "meta_norad_cat_id": 66340,
        "meta_element_set_no": 999,
        "meta_rev_at_epoch": 530,
        "meta_bstar": 0.0021881401,
        "meta_mean_motion_dot": 0.00130561,
        "meta_mean_motion_ddot": 0,
        "tle_line1": "1 66340U 25253X   25336.23932528  .00130561  00000+0  21881-2 0  9996",
        "tle_line2": "2 66340  43.0002  46.0659 0001722 259.1035 100.9632 15.50658934  5302"
      },
      "geometry": {
        "type": "Point",
        "coordinates": [
          -131.7403238653042,
          -4.320336207957757
        ]
      }
    }
  ]
}